OBJECT_NAME,OBJECT_ID,EPOCH,MEAN_MOTION,ECCENTRICITY,INCLINATION,RA_OF_ASC_NODE,ARG_OF_PERICENTER,MEAN_ANOMALY,EPHEMERIS_TYPE,CLASSIFICATION_TYPE,NORAD_CAT_ID,ELEMENT_SET_NO,REV_AT_EPOCH,BSTAR,MEAN_MOTION_DOT,MEAN_MOTION_DDOT
STARLINK-37618,2026-115T,2026-06-08T19:12:46.647360,15.80864396,.0000819,97.2841,176.8358,86.8565,273.2797,0,U,69228,999,336,.12488E-2,.246492E-2,0
STARLINK-37679,2026-115U,2026-06-08T19:14:54.284352,15.80866042,.0001364,97.2839,176.8334,92.8097,267.3327,0,U,69229,999,336,.72002E-3,.140335E-2,0
STARLINK-37746,2026-115V,2026-06-08T19:17:06.916128,15.80858109,.000092,97.2835,176.8311,90.9153,269.2221,0,U,69230,999,336,.8265E-3,.161443E-2,0
STARLINK-37557,2026-115W,2026-06-08T19:12:46.623168,15.80809550,.0001242,97.2839,176.8365,118.7157,241.4236,0,U,69231,999,336,.35783E-2,.747196E-2,0
STARLINK-37745,2026-115X,2026-06-08T19:06:42.262272,15.80866986,.0001428,97.2842,176.8421,83.6602,276.4829,0,U,69232,999,336,.75474E-3,.147235E-2,0
STARLINK-37739,2026-115Y,2026-06-08T19:13:58.064736,15.78255579,.0006862,97.2839,176.8350,144.8100,215.3621,0,U,69233,999,336,-.24264E-1,-.3548551E-1,0
STARLINK-37755,2026-115Z,2026-06-08T20:00:03.000384,15.75199557,.0001562,97.2847,176.8501,95.6375,38.5166,0,U,69234,999,335,-.30164E-3,-.44904E-3,0
TJS-24,2026-116A,2026-06-08T20:55:57.692928,1.00270968,.0000698,0.0273,245.6213,172.9300,243.0044,0,U,69235,999,14,0,-.215E-5,0
STARLINK-37665,2026-117A,2026-06-08T20:00:03.000384,15.81928724,.0000741,53.1585,285.5592,24.0197,280.2858,0,U,69238,999,282,.66358E-3,.139053E-2,0
STARLINK-37558,2026-117B,2026-06-08T20:00:03.000384,15.81930219,.0000914,53.1586,285.5480,41.5868,268.1342,0,U,69239,999,282,.66968E-3,.14037E-2,0
STARLINK-37680,2026-117C,2026-06-08T20:00:03.000384,15.81939633,.000087,53.1587,285.5306,66.9652,250.9659,0,U,69240,999,281,.46318E-3,.96413E-3,0
STARLINK-37742,2026-117D,2026-06-08T20:00:03.000384,15.81971780,.000099,53.1586,285.5101,21.2432,306.8292,0,U,69241,999,282,.44837E-3,.93416E-3,0
STARLINK-37718,2026-117E,2026-06-08T20:00:03.000384,15.81970084,.0000965,53.1587,285.4952,79.9889,255.1172,0,U,69242,999,281,.35679E-3,.74016E-3,0
STARLINK-37735,2026-117F,2026-06-08T20:00:03.000384,15.81919142,.0000795,53.1587,285.4937,85.7632,249.9898,0,U,69243,999,282,.58143E-3,.121447E-2,0
STARLINK-37757,2026-117G,2026-06-08T20:00:03.000384,15.81911568,.0000524,53.1584,285.4655,77.0625,272.3350,0,U,69244,999,282,.78514E-3,.165026E-2,0
STARLINK-37767,2026-117H,2026-06-08T20:00:03.000384,15.82050148,.0000929,53.1582,285.4150,86.9496,286.7027,0,U,69245,999,282,-.49976E-3,-.103649E-2,0
STARLINK-35759,2026-117J,2026-06-08T20:00:03.000384,15.81990876,.0000559,53.1580,285.4065,79.8204,297.7519,0,U,69246,999,287,-.2787E-4,-.6499E-4,0
STARLINK-37238,2026-117K,2026-06-08T20:00:03.000384,15.83859778,.0000843,53.1576,285.3567,56.8757,344.5346,0,U,69247,999,283,-.95311E-2,-.1893067E-1,0
STARLINK-37412,2026-117L,2026-06-08T20:00:03.000384,15.84478191,.0000942,53.1572,285.3193,57.1058,2.3581,0,U,69248,999,289,-.90529E-2,-.1857779E-1,0
STARLINK-37398,2026-117M,2026-06-08T20:00:03.000384,15.84123813,.0000773,53.1569,285.3140,63.2503,358.6283,0,U,69249,999,289,-.40569E-2,-.847719E-2,0
STARLINK-37499,2026-117N,2026-06-08T20:00:03.000384,15.84622975,.0001191,53.1568,285.2993,44.7914,24.2247,0,U,69250,999,289,-.93357E-2,-.1920312E-1,0
STARLINK-37489,2026-117P,2026-06-08T20:00:03.000384,15.84907047,.0000787,53.1571,285.2795,57.0844,21.4378,0,U,69251,999,289,-.98569E-2,-.2036462E-1,0
STARLINK-37434,2026-117Q,2026-06-08T20:00:03.000384,15.85831041,.0001304,53.1564,285.2495,50.7938,42.0166,0,U,69252,999,283,-.91517E-2,-.1986789E-1,0
STARLINK-37368,2026-117R,2026-06-08T20:00:03.000384,15.87541964,.0001167,53.1559,285.1841,54.6033,69.7582,0,U,69253,999,289,-.81871E-2,-.194167E-1,0
STARLINK-37517,2026-117S,2026-06-08T20:00:03.000384,15.87768560,.0001111,53.1559,285.1714,49.8925,80.8446,0,U,69254,999,289,-.80565E-2,-.1933661E-1,0
STARLINK-37378,2026-117T,2026-06-08T20:00:03.000384,15.87576053,.0001204,53.1560,285.1645,53.8959,79.8696,0,U,69255,999,282,-.8272E-2,-.1962116E-1,0
STARLINK-37396,2026-117U,2026-06-08T20:00:03.000384,15.87950785,.0001294,53.1558,285.1385,58.6882,87.3886,0,U,69256,999,290,-.81978E-2,-.1979025E-1,0
STARLINK-37508,2026-117V,2026-06-08T20:00:03.000384,15.88145584,.0001113,53.1556,285.1205,48.0232,106.4868,0,U,69257,999,282,-.81859E-2,-.1993219E-1,0
STARLINK-37276,2026-117W,2026-06-08T20:00:03.000384,15.93995631,.0001132,53.1551,284.9723,58.0325,167.4588,0,U,69258,999,282,-.10039E-2,-.382553E-2,.58889E-4
