STARLINK-37618          
1 69228U 26115T   26159.80053990  .00246492  00000+0  12488-2 0  9990
2 69228  97.2841 176.8358 0000819  86.8565 273.2797 15.80864396  3363
STARLINK-37679          
1 69229U 26115U   26159.80201718  .00140335  00000+0  72002-3 0  9992
2 69229  97.2839 176.8334 0001364  92.8097 267.3327 15.80866042  3361
STARLINK-37746          
1 69230U 26115V   26159.80355227  .00161443  00000+0  82650-3 0  9992
2 69230  97.2835 176.8311 0000920  90.9153 269.2221 15.80858109  3362
STARLINK-37557          
1 69231U 26115W   26159.80053962  .00747196  00000+0  35783-2 0  9993
2 69231  97.2839 176.8365 0001242 118.7157 241.4236 15.80809550  3361
STARLINK-37745          
1 69232U 26115X   26159.79632248  .00147235  00000+0  75474-3 0  9992
2 69232  97.2842 176.8421 0001428  83.6602 276.4829 15.80866986  3362
STARLINK-37739          
1 69233U 26115Y   26159.80136649 -.03548551  00000+0 -24264-1 0  9999
2 69233  97.2839 176.8350 0006862 144.8100 215.3621 15.78255579  3369
STARLINK-37755          
1 69234U 26115Z   26159.83336806 -.00044904  00000+0 -30164-3 0  9998
2 69234  97.2847 176.8501 0001562  95.6375  38.5166 15.75199557  3354
TJS-24                  
1 69235U 26116A   26159.87219552 -.00000215  00000+0  00000+0 0  9990
2 69235   0.0273 245.6213 0000698 172.9300 243.0044  1.00270968   142
STARLINK-37665          
1 69238U 26117A   26159.83336806  .00139053  00000+0  66358-3 0  9996
2 69238  53.1585 285.5592 0000741  24.0197 280.2858 15.81928724  2820
STARLINK-37558          
1 69239U 26117B   26159.83336806  .00140370  00000+0  66968-3 0  9998
2 69239  53.1586 285.5480 0000914  41.5868 268.1342 15.81930219  2824
STARLINK-37680          
1 69240U 26117C   26159.83336806  .00096413  00000+0  46318-3 0  9995
2 69240  53.1587 285.5306 0000870  66.9652 250.9659 15.81939633  2815
STARLINK-37742          
1 69241U 26117D   26159.83336806  .00093416  00000+0  44837-3 0  9990
2 69241  53.1586 285.5101 0000990  21.2432 306.8292 15.81971780  2825
STARLINK-37718          
1 69242U 26117E   26159.83336806  .00074016  00000+0  35679-3 0  9990
2 69242  53.1587 285.4952 0000965  79.9889 255.1172 15.81970084  2816
STARLINK-37735          
1 69243U 26117F   26159.83336806  .00121447  00000+0  58143-3 0  9993
2 69243  53.1587 285.4937 0000795  85.7632 249.9898 15.81919142  2827
STARLINK-37757          
1 69244U 26117G   26159.83336806  .00165026  00000+0  78514-3 0  9999
2 69244  53.1584 285.4655 0000524  77.0625 272.3350 15.81911568  2825
STARLINK-37767          
1 69245U 26117H   26159.83336806 -.00103649  00000+0 -49976-3 0  9995
2 69245  53.1582 285.4150 0000929  86.9496 286.7027 15.82050148  2827
STARLINK-35759          
1 69246U 26117J   26159.83336806 -.00006499  00000+0 -27870-4 0  9991
2 69246  53.1580 285.4065 0000559  79.8204 297.7519 15.81990876  2871
STARLINK-37238          
1 69247U 26117K   26159.83336806 -.01893067  00000+0 -95311-2 0  9991
2 69247  53.1576 285.3567 0000843  56.8757 344.5346 15.83859778  2839
STARLINK-37412          
1 69248U 26117L   26159.83336806 -.01857779  00000+0 -90529-2 0  9998
2 69248  53.1572 285.3193 0000942  57.1058   2.3581 15.84478191  2892
STARLINK-37398          
1 69249U 26117M   26159.83336806 -.00847719  00000+0 -40569-2 0  9990
2 69249  53.1569 285.3140 0000773  63.2503 358.6283 15.84123813  2890
STARLINK-37499          
1 69250U 26117N   26159.83336806 -.01920312  00000+0 -93357-2 0  9997
2 69250  53.1568 285.2993 0001191  44.7914  24.2247 15.84622975  2890
STARLINK-37489          
1 69251U 26117P   26159.83336806 -.02036462  00000+0 -98569-2 0  9993
2 69251  53.1571 285.2795 0000787  57.0844  21.4378 15.84907047  2894
STARLINK-37434          
1 69252U 26117Q   26159.83336806 -.01986789  00000+0 -91517-2 0  9995
2 69252  53.1564 285.2495 0001304  50.7938  42.0166 15.85831041  2833
STARLINK-37368          
1 69253U 26117R   26159.83336806 -.01941670  00000+0 -81871-2 0  9998
2 69253  53.1559 285.1841 0001167  54.6033  69.7582 15.87541964  2896
STARLINK-37517          
1 69254U 26117S   26159.83336806 -.01933661  00000+0 -80565-2 0  9999
2 69254  53.1559 285.1714 0001111  49.8925  80.8446 15.87768560  2897
STARLINK-37378          
1 69255U 26117T   26159.83336806 -.01962116  00000+0 -82720-2 0  9992
2 69255  53.1560 285.1645 0001204  53.8959  79.8696 15.87576053  2820
STARLINK-37396          
1 69256U 26117U   26159.83336806 -.01979025  00000+0 -81978-2 0  9994
2 69256  53.1558 285.1385 0001294  58.6882  87.3886 15.87950785  2908
STARLINK-37508          
1 69257U 26117V   26159.83336806 -.01993219  00000+0 -81859-2 0  9994
2 69257  53.1556 285.1205 0001113  48.0232 106.4868 15.88145584  2828
STARLINK-37276          
1 69258U 26117W   26159.83336806 -.00382553  58889-4 -10039-2 0  9992
2 69258  53.1551 284.9723 0001132  58.0325 167.4588 15.93995631  2829
